NORAD_CAT_ID,OBJECT_NAME,OBJECT_TYPE,EPOCH,MEAN_MOTION,ECCENTRICITY,INCLINATION,RA_OF_ASC_NODE,ARG_OF_PERICENTER,MEAN_ANOMALY,BSTAR,MEAN_MOTION_DOT,MEAN_MOTION_DDOT,TLE_LINE0,TLE_LINE1,TLE_LINE2,SEMIMAJOR_AXIS,PERIOD,APOGEE,PERIGEE,DECAYED
52454.0,STARLINK-3888,PAYLOAD,2022-05-23 04:00:00,15.72986744,0.0002128,53.2172,183.3736,23.3433,294.483,-0.0017703,-0.00239954,0.0,0 STARLINK-3888,1 52454U 22049D   22143.16667824 -.00239954  00000-0 -17703-2 0  9993,2 52454  53.2172 183.3736 0002128  23.3433 294.4830 15.72986744  2807,6728.503000000002,91.546,351.8,348.936,0.0
52454.0,STARLINK-3888,PAYLOAD,2022-05-23 14:00:01,15.72800588,0.0002176,53.2173,181.3158,23.5494,134.9718,-0.0056105,-0.00712455,0.0,0 STARLINK-3888,1 52454U 22049D   22143.58334491 -.00712455  00000-0 -56105-2 0  9991,2 52454  53.2173 181.3158 0002176  23.5494 134.9718 15.72800588  1304,6729.034000000002,91.556,352.36300000000006,349.435,0.0
52454.0,STARLINK-3888,PAYLOAD,2022-05-23 16:00:00,15.72678457,0.0002014,53.2171,180.9031,25.0403,245.572,-0.0057205,-0.0072177,0.0,0 STARLINK-3888,1 52454U 22049D   22143.66667824 -.00721770  00000-0 -57205-2 0  9991,2 52454  53.2171 180.9031 0002014  25.0403 245.5720 15.72678457  2889,6729.3830000000025,91.564,352.603,349.892,0.0
52454.0,STARLINK-3888,PAYLOAD,2022-05-23 22:00:01,15.72293346,0.0002261,53.2175,179.6658,20.3996,226.3282,-0.0057746,-0.00717134,0.0,0 STARLINK-3888,1 52454U 22049D   22143.91668981 -.00717134  00000-0 -57746-2 0  9993,2 52454  53.2175 179.6658 0002261  20.3996 226.3282 15.72293346  1308,6730.481,91.586,353.86800000000005,350.825,0.0
52454.0,STARLINK-3888,PAYLOAD,2022-05-24 03:03:30,15.72198484,0.0003098,53.2159,178.6224,296.0718,63.9982,-0.0019526,-0.00255454,0.0,0 STARLINK-3888,1 52454U 22049D   22144.12744051 -.00255454  00000-0 -19526-2 0  9996,2 52454  53.2159 178.6224 0003098 296.0718  63.9982 15.72198484  2963,6730.752,91.591,354.702,350.532,0.0
52454.0,STARLINK-3888,PAYLOAD,2022-05-24 12:12:29,15.73135549,0.0007144,53.2159,176.736,305.9768,54.0589,0.0032585,0.00482937,0.0,0 STARLINK-3888,1 52454U 22049D   22144.50867831  .00482937  00000-0  32585-2 0  9996,2 52454  53.2159 176.7360 0007144 305.9768  54.0589 15.73135549  3020,6728.079000000002,91.537,354.75,345.13699999999994,0.0
52454.0,STARLINK-3888,PAYLOAD,2022-05-24 22:00:00,15.70762891,0.0001824,53.2174,174.7296,26.7788,120.6291,-0.0061494,-0.00715613,0.0,0 STARLINK-3888,1 52454U 22049D   22144.91667824 -.00715613  00000-0 -61494-2 0  9994,2 52454  53.2174 174.7296 0001824  26.7788 120.6291 15.70762891  3081,6734.852,91.675,357.946,355.48900000000015,0.0
52454.0,STARLINK-3888,PAYLOAD,2022-05-25 14:00:01,15.69744408,0.0001315999999999,53.2174,171.4469,46.7088,271.4635,-0.0064325,-0.00716969,0.0,0 STARLINK-3888,1 52454U 22049D   22145.58334491 -.00716969  00000-0 -64325-2 0  9990,2 52454  53.2174 171.4469 0001316  46.7088 271.4635 15.69744408  1300,6737.765,91.735,360.517,358.744,0.0
52454.0,STARLINK-3888,PAYLOAD,2022-05-25 22:00:00,15.69232587,0.0001522,53.2174,169.8045,32.9255,9.7132,-0.006555,-0.00715376,0.0,0 STARLINK-3888,1 52454U 22049D   22145.91667824 -.00715376  00000-0 -65550-2 0  9998,2 52454  53.2174 169.8045 0001522  32.9255   9.7132 15.69232587  3242,6739.23,91.765,362.121,360.07,0.0
52454.0,STARLINK-3888,PAYLOAD,2022-05-26 13:06:34,15.68688343,0.0001898,53.2156,166.7072,54.2973,305.8222,-0.0032172,-0.00358542,0.0,0 STARLINK-3888,1 52454U 22049D   22146.54623025 -.00358542  00000-0 -32172-2 0  9995,2 52454  53.2156 166.7072 0001898  54.2973 305.8222 15.68688343  3185,6740.7890000000025,91.796,363.9330000000001,361.375,0.0
52454.0,STARLINK-3888,PAYLOAD,2022-05-26 20:00:01,15.67830568,0.0001595999999999,53.2175,165.3,39.0766,142.678,-0.0069419,-0.00714966,0.0,0 STARLINK-3888,1 52454U 22049D   22146.83334491 -.00714966  00000-0 -69419-2 0  9993,2 52454  53.2175 165.3000 0001596  39.0766 142.6780 15.67830568  3383,6743.246999999999,91.847,366.189,364.036,0.0
52454.0,STARLINK-3888,PAYLOAD,2022-05-26 22:00:00,15.67702876,0.0001439,53.2174,164.8906,41.8771,250.4768,-0.0069783999999999,-0.00714931,0.0,0 STARLINK-3888,1 52454U 22049D   22146.91667824 -.00714931  00000-0 -69784-2 0  9998,2 52454  53.2174 164.8906 0001439  41.8771 250.4768 15.67702876  1308,6743.613,91.854,366.449,364.508,0.0
52454.0,STARLINK-3888,PAYLOAD,2022-05-27 01:20:51,15.68055064,0.0001616,53.2153,164.2038,66.7325,293.3863,-0.002573,-0.00282038,0.0,0 STARLINK-3888,1 52454U 22049D   22147.05615426 -.00282038  00000-0 -25730-2 0  9996,2 52454  53.2153 164.2038 0001616  66.7325 293.3863 15.68055064  3421,6742.604,91.834,365.5580000000001,363.379,0.0
52454.0,STARLINK-3888,PAYLOAD,2022-05-27 12:03:43,15.6718761,9.49e-05,53.2152,162.0149,109.2461,250.8659,-0.0037927,-0.00395551,0.0,0 STARLINK-3888,1 52454U 22049D   22147.50258749 -.00395551  00000-0 -37927-2 0  9993,2 52454  53.2152 162.0149 0000949 109.2461 250.8659 15.67187610  3491,6745.092,91.884,367.597,366.316,0.0
52454.0,STARLINK-3888,PAYLOAD,2022-05-27 14:00:01,15.66684516,0.0001405,53.2172,161.6227,42.3727,53.3924,-0.0072973,-0.00716932,0.0,0 STARLINK-3888,1 52454U 22049D   22147.58334491 -.00716932  00000-0 -72973-2 0  9990,2 52454  53.2172 161.6227 0001405  42.3727  53.3924 15.66684516  1300,6746.535,91.914,369.348,367.453,0.0
52454.0,STARLINK-3888,PAYLOAD,2022-05-27 22:00:01,15.66174081,0.0001704,53.2173,159.9877,36.4847,140.1343,-0.0074446,-0.00716503,0.0,0 STARLINK-3888,1 52454U 22049D   22147.91668981 -.00716503  00000-0 -74446-2 0  9992,2 52454  53.2173 159.9877 0001704  36.4847 140.1343 15.66174081  3551,6748.001,91.944,371.016,368.716,0.0
52454.0,STARLINK-3888,PAYLOAD,2022-05-28 14:00:01,15.65155508,0.0001443,53.2172,156.7275,39.5431,296.7449,-0.0077728,-0.00717793,0.0,0 STARLINK-3888,1 52454U 22049D   22148.58334491 -.00717793  00000-0 -77728-2 0  9990,2 52454  53.2172 156.7275 0001443  39.5431 296.7449 15.65155508  1308,6750.929,92.004,373.768,371.819,0.0
52454.0,STARLINK-3888,PAYLOAD,2022-05-28 22:00:00,15.64643321,0.0001513,53.2172,155.0963,35.2697,19.9696,-0.0079083,-0.00715668,0.0,0 STARLINK-3888,1 52454U 22049D   22148.91667824 -.00715668  00000-0 -79083-2 0  9991,2 52454  53.2172 155.0963 0001513  35.2697  19.9696 15.64643321  3719,6752.401999999999,92.034,375.288,373.245,0.0
52454.0,STARLINK-3888,PAYLOAD,2022-05-29 13:05:59,15.64282024,0.0001763,53.2148,152.0234,41.4507,318.6643,-0.0037157,-0.00346899,0.0,0 STARLINK-3888,1 52454U 22049D   22149.54583068 -.00346899  00000-0 -37157-2 0  9990,2 52454  53.2148 152.0234 0001763  41.4507 318.6643 15.64282024  3817,6753.441,92.055,376.497,374.116,0.0
52454.0,STARLINK-3888,PAYLOAD,2022-05-29 20:00:01,15.63240016,0.0001679,53.2174,150.6224,38.7216,140.4674,-0.0083199,-0.0071238,0.0,0 STARLINK-3888,1 52454U 22049D   22149.83334491 -.00712380  00000-0 -83199-2 0  9995,2 52454  53.2174 150.6224 0001679  38.7216 140.4674 15.63240016  3854,6756.441999999999,92.116,379.442,377.173,0.0
52454.0,STARLINK-3888,PAYLOAD,2022-05-29 22:00:00,15.63113108,0.0001531999999999,53.2174,150.2158,41.3393,247.0701,-0.0083863,-0.00714273,0.0,0 STARLINK-3888,1 52454U 22049D   22149.91667824 -.00714273  00000-0 -83863-2 0  9994,2 52454  53.2174 150.2158 0001532  41.3393 247.0701 15.63113108  1304,6756.808000000001,92.124,379.708,377.638,0.0
52454.0,STARLINK-3888,PAYLOAD,2022-05-30 13:39:20,15.62723449,0.0001661,53.2148,147.0368,29.658,330.4530000000001,-0.0039036,-0.00342856,0.0,0 STARLINK-3888,1 52454U 22049D   22150.56898692 -.00342856  00000-0 -39036-2 0  9993,2 52454  53.2148 147.0368 0001661  29.6580 330.4530 15.62723449  3811,6757.931,92.147,380.919,378.674,0.0
52454.0,STARLINK-3888,PAYLOAD,2022-05-30 22:00:00,15.61584968,0.0001675999999999,53.2172,145.3467,39.1804,116.8832,-0.0089402,-0.00716926,0.0,0 STARLINK-3888,1 52454U 22049D   22150.91667824 -.00716926  00000-0 -89402-2 0  9998,2 52454  53.2172 145.3467 0001676  39.1804 116.8832 15.61584968  4025,6761.215,92.214,384.213,381.947,0.0
52454.0,STARLINK-3888,PAYLOAD,2022-05-31 06:00:02,15.61073463,0.0002021,53.2173,143.7279,31.3294,199.4581,-0.0090848,-0.00714462,0.0,0 STARLINK-3888,1 52454U 22049D   22151.25002315 -.00714462  00000-0 -90848-2 0  9993,2 52454  53.2173 143.7279 0002021  31.3294 199.4581 15.61073463  1300,6762.691999999999,92.244,385.924,383.19,0.0
52454.0,STARLINK-3888,PAYLOAD,2022-05-31 22:00:00,15.60052926,0.0001526,53.2173,140.4886,36.8078,341.3964,-0.0094321,-0.00713084,0.0,0 STARLINK-3888,1 52454U 22049D   22151.91667824 -.00713084  00000-0 -94321-2 0  9997,2 52454  53.2173 140.4886 0001526  36.8078 341.3964 15.60052926  4189,6765.641,92.305,388.538,386.474,0.0
52454.0,STARLINK-3888,PAYLOAD,2022-06-01 10:13:31,15.60148304,0.0002408,53.2153,138.0156,19.4072,340.7034,-0.0043011,-0.00341927,0.0,0 STARLINK-3888,1 52454U 22049D   22152.42605693 -.00341927  00000-0 -43011-2 0  9993,2 52454  53.2153 138.0156 0002408  19.4072 340.7034 15.60148304  4267,6765.365,92.299,388.859,385.601,0.0
52454.0,STARLINK-3888,PAYLOAD,2022-06-01 20:00:01,15.58651586,0.0001657,53.2173,136.0452,36.3802,90.6069,-0.009974,-0.0071455,0.0,0 STARLINK-3888,1 52454U 22049D   22152.83334491 -.00714550  00000-0 -99740-2 0  9999,2 52454  53.2173 136.0452 0001657  36.3802  90.6069 15.58651586  4324,6769.696,92.388,392.682,390.439,0.0
52454.0,STARLINK-3888,PAYLOAD,2022-06-02 15:28:15,15.58277177,0.0001373,53.2155,132.1175,16.0669,344.0388,-0.0046858,-0.00346586,0.0,0 STARLINK-3888,1 52454U 22049D   22153.64462817 -.00346586  00000-0 -46858-2 0  9995,2 52454  53.2155 132.1175 0001373  16.0669 344.0388 15.58277177  4458,6770.78,92.41,393.575,391.715,0.0
52454.0,STARLINK-3888,PAYLOAD,2022-06-03 00:42:16,15.58463873,0.000286,53.2156,130.2556,7.0553,353.05,-0.0015805,-0.00121403,0.0,0 STARLINK-3888,1 52454U 22049D   22154.02935772 -.00121403  00000-0 -15805-2 0  9990,2 52454  53.2156 130.2556 0002860   7.0553 353.0500 15.58463873  4518,6770.239000000001,92.399,394.041,390.168,0.0
